{
  "type": "FeatureCollection",
  "features": [
    {
      "type": "Feature",
      "properties": {
        "norad_id": 30080,
        "name": "FENGYUN 1C DEB",
        "group": "fengyun-1c-debris",
        "lat": 52.94423013744213,
        "lon": -46.68738217050274,
        "alt_km": 757.2068426536207,
        "timestamp": "2025-12-10T09:57:44.972961+00:00",
        "meta_object_name": "FENGYUN 1C DEB",
        "meta_object_id": "1999-025QH",
        "meta_epoch": "2025-12-10T04:40:44.081760",
        "meta_mean_motion": 14.10816681,
        "meta_eccentricity": 0.0133878,
        "meta_inclination": 98.6981,
        "meta_ra_of_asc_node": 324.7966,
        "meta_arg_of_pericenter": 67.7701,
        "meta_mean_anomaly": 308.9797,
        "meta_ephemeris_type": 0,
        "meta_classification_type": "U",
        "meta_norad_cat_id": 30080,
        "meta_element_set_no": 999,
        "meta_rev_at_epoch": 97202,
        "meta_bstar": 0.00040367,
        "meta_mean_motion_dot": 7.45e-06,
        "meta_mean_motion_ddot": 0,
        "tle_line1": "1 30080U 99025QH  25344.19495465  .00000745  00000+0  40367-3 0  9995",
        "tle_line2": "2 30080  98.6981 324.7966 0133878  67.7701 308.9797 14.10816681972028"
      },
      "geometry": {
        "type": "Point",
        "coordinates": [
          -46.68738217050274,
          52.94423013744213
        ]
      }
    },
    {
      "type": "Feature",
      "properties": {
        "norad_id": 30081,
        "name": "FENGYUN 1C DEB",
        "group": "fengyun-1c-debris",
        "lat": -4.691832063993057,
        "lon": -18.51000097423483,
        "alt_km": 848.6964551753035,
        "timestamp": "2025-12-10T09:57:44.972971+00:00",
        "meta_object_name": "FENGYUN 1C DEB",
        "meta_object_id": "1999-025QJ",
        "meta_epoch": "2025-12-09T20:48:13.258368",
        "meta_mean_motion": 13.98271678,
        "meta_eccentricity": 0.0076021,
        "meta_inclination": 98.9225,
        "meta_ra_of_asc_node": 340.2181,
        "meta_arg_of_pericenter": 347.1614,
        "meta_mean_anomaly": 129.6345,
        "meta_ephemeris_type": 0,
        "meta_classification_type": "U",
        "meta_norad_cat_id": 30081,
        "meta_element_set_no": 999,
        "meta_rev_at_epoch": 96314,
        "meta_bstar": 0.00076189,
        "meta_mean_motion_dot": 1.071e-05,
        "meta_mean_motion_ddot": 0,
        "tle_line1": "1 30081U 99025QJ  25343.86682012  .00001071  00000+0  76189-3 0  9999",
        "tle_line2": "2 30081  98.9225 340.2181 0076021 347.1614 129.6345 13.98271678963145"
      },
      "geometry": {
        "type": "Point",
        "coordinates": [
          -18.51000097423483,
          -4.691832063993057
        ]
      }
    },
    {
      "type": "Feature",
      "properties": {
        "norad_id": 30082,
        "name": "FENGYUN 1C DEB",
        "group": "fengyun-1c-debris",
        "lat": -15.87934947304033,
        "lon": -85.6784126985593,
        "alt_km": 573.3147247999423,
        "timestamp": "2025-12-10T09:57:44.972981+00:00",
        "meta_object_name": "FENGYUN 1C DEB",
        "meta_object_id": "1999-025QK",
        "meta_epoch": "2025-12-10T00:31:22.285344",
        "meta_mean_motion": 15.14897354,
        "meta_eccentricity": 0.0069621,
        "meta_inclination": 98.8178,
        "meta_ra_of_asc_node": 271.335,
        "meta_arg_of_pericenter": 175.5396,
        "meta_mean_anomaly": 184.6468,
        "meta_ephemeris_type": 0,
        "meta_classification_type": "U",
        "meta_norad_cat_id": 30082,
        "meta_element_set_no": 999,
        "meta_rev_at_epoch": 1252,
        "meta_bstar": 0.0017973,
        "meta_mean_motion_dot": 0.0003562,
        "meta_mean_motion_ddot": 0,
        "tle_line1": "1 30082U 99025QK  25344.02178571  .00035620  00000+0  17973-2 0  9991",
        "tle_line2": "2 30082  98.8178 271.3350 0069621 175.5396 184.6468 15.14897354 12521"
      },
      "geometry": {
        "type": "Point",
        "coordinates": [
          -85.6784126985593,
          -15.87934947304033
        ]
      }
    },
    {
      "type": "Feature",
      "properties": {
        "norad_id": 30086,
        "name": "FENGYUN 1C DEB",
        "group": "fengyun-1c-debris",
        "lat": 78.61755034014871,
        "lon": -110.66431942617035,
        "alt_km": 840.7530841089274,
        "timestamp": "2025-12-10T09:57:44.972991+00:00",
        "meta_object_name": "FENGYUN 1C DEB",
        "meta_object_id": "1999-025QP",
        "meta_epoch": "2025-12-10T01:05:28.355712",
        "meta_mean_motion": 14.03822129,
        "meta_eccentricity": 0.0061761,
        "meta_inclination": 98.9101,
        "meta_ra_of_asc_node": 17.782,
        "meta_arg_of_pericenter": 141.9595,
        "meta_mean_anomaly": 248.5956,
        "meta_ephemeris_type": 0,
        "meta_classification_type": "U",
        "meta_norad_cat_id": 30086,
        "meta_element_set_no": 999,
        "meta_rev_at_epoch": 96658,
        "meta_bstar": 0.0005968,
        "meta_mean_motion_dot": 9.13e-06,
        "meta_mean_motion_ddot": 0,
        "tle_line1": "1 30086U 99025QP  25344.04546708  .00000913  00000+0  59680-3 0  9997",
        "tle_line2": "2 30086  98.9101  17.7820 0061761 141.9595 248.5956 14.03822129966582"
      },
      "geometry": {
        "type": "Point",
        "coordinates": [
          -110.66431942617035,
          78.61755034014871
        ]
      }
    },
    {
      "type": "Feature",
      "properties": {
        "norad_id": 30087,
        "name": "FENGYUN 1C DEB",
        "group": "fengyun-1c-debris",
        "lat": 79.88350129766818,
        "lon": -107.56154394381988,
        "alt_km": 625.5692807845999,
        "timestamp": "2025-12-10T09:57:44.973001+00:00",
        "meta_object_name": "FENGYUN 1C DEB",
        "meta_object_id": "1999-025QQ",
        "meta_epoch": "2025-12-10T01:24:42.467040",
        "meta_mean_motion": 14.3569376,
        "meta_eccentricity": 0.0230227,
        "meta_inclination": 98.3809,
        "meta_ra_of_asc_node": 16.3771,
        "meta_arg_of_pericenter": 129.3401,
        "meta_mean_anomaly": 287.3651,
        "meta_ephemeris_type": 0,
        "meta_classification_type": "U",
        "meta_norad_cat_id": 30087,
        "meta_element_set_no": 999,
        "meta_rev_at_epoch": 98657,
        "meta_bstar": 0.00035985,
        "meta_mean_motion_dot": 1.357e-05,
        "meta_mean_motion_ddot": 0,
        "tle_line1": "1 30087U 99025QQ  25344.05882485  .00001357  00000+0  35985-3 0  9999",
        "tle_line2": "2 30087  98.3809  16.3771 0230227 129.3401 287.3651 14.35693760986579"
      },
      "geometry": {
        "type": "Point",
        "coordinates": [
          -107.56154394381988,
          79.88350129766818
        ]
      }
    },
    {
      "type": "Feature",
      "properties": {
        "norad_id": 30088,
        "name": "FENGYUN 1C DEB",
        "group": "fengyun-1c-debris",
        "lat": -4.54419863088052,
        "lon": -30.566204403122885,
        "alt_km": 800.3220965166984,
        "timestamp": "2025-12-10T09:57:44.973011+00:00",
        "meta_object_name": "FENGYUN 1C DEB",
        "meta_object_id": "1999-025QR",
        "meta_epoch": "2025-12-09T22:24:32.132736",
        "meta_mean_motion": 14.35898599,
        "meta_eccentricity": 0.0200741,
        "meta_inclination": 98.3541,
        "meta_ra_of_asc_node": 328.2978,
        "meta_arg_of_pericenter": 255.9154,
        "meta_mean_anomaly": 130.3211,
        "meta_ephemeris_type": 0,
        "meta_classification_type": "U",
        "meta_norad_cat_id": 30088,
        "meta_element_set_no": 999,
        "meta_rev_at_epoch": 98632,
        "meta_bstar": 0.00057196,
        "meta_mean_motion_dot": 2.036e-05,
        "meta_mean_motion_ddot": 0,
        "tle_line1": "1 30088U 99025QR  25343.93370524  .00002036  00000+0  57196-3 0  9995",
        "tle_line2": "2 30088  98.3541 328.2978 0200741 255.9154 130.3211 14.35898599986325"
      },
      "geometry": {
        "type": "Point",
        "coordinates": [
          -30.566204403122885,
          -4.54419863088052
        ]
      }
    },
    {
      "type": "Feature",
      "properties": {
        "norad_id": 30089,
        "name": "FENGYUN 1C DEB",
        "group": "fengyun-1c-debris",
        "lat": 69.36133264423604,
        "lon": -134.83887712702727,
        "alt_km": 827.0873441058156,
        "timestamp": "2025-12-10T09:57:44.973021+00:00",
        "meta_object_name": "FENGYUN 1C DEB",
        "meta_object_id": "1999-025QS",
        "meta_epoch": "2025-12-09T12:37:49.122336",
        "meta_mean_motion": 14.30299278,
        "meta_eccentricity": 0.00731754,
        "meta_inclination": 98.9031,
        "meta_ra_of_asc_node": 248.8455,
        "meta_arg_of_pericenter": 219.4524,
        "meta_mean_anomaly": 318.2408,
        "meta_ephemeris_type": 0,
        "meta_classification_type": "U",
        "meta_norad_cat_id": 30089,
        "meta_element_set_no": 999,
        "meta_rev_at_epoch": 98433,
        "meta_bstar": 0.00043233228,
        "meta_mean_motion_dot": 1.108e-05,
        "meta_mean_motion_ddot": 0,
        "tle_line1": "1 30089U 99025QS  25343.52626299  .00001108  00000+0  43233-3 0  9990",
        "tle_line2": "2 30089  98.9031 248.8455 0073175 219.4524 318.2408 14.30299278984336"
      },
      "geometry": {
        "type": "Point",
        "coordinates": [
          -134.83887712702727,
          69.36133264423604
        ]
      }
    }
  ]
}